[{"OBJECT_NAME":"STARLINK-1277","OBJECT_ID":"2020-019K","EPOCH":"2026-03-10T00:00:02.999808","MEAN_MOTION":15.48940207,"ECCENTRICITY":0.00040314,"INCLINATION":53.0509,"RA_OF_ASC_NODE":151.1274,"ARG_OF_PERICENTER":12.6993,"MEAN_ANOMALY":253.0952,"EPHEMERIS_TYPE":0,"CLASSIFICATION_TYPE":"U","NORAD_CAT_ID":45369,"ELEMENT_SET_NO":999,"REV_AT_EPOCH":575,"BSTAR":0.002005627,"MEAN_MOTION_DOT":0.00111275,"MEAN_MOTION_DDOT":0},{"OBJECT_NAME":"SHERPA-FX2 & TAGSAT-2","OBJECT_ID":"2021-059CH","EPOCH":"2026-03-09T23:13:51.251520","MEAN_MOTION":15.52139464,"ECCENTRICITY":0.0006571,"INCLINATION":97.6905,"RA_OF_ASC_NODE":255.7235,"ARG_OF_PERICENTER":345.3561,"MEAN_ANOMALY":14.7499,"EPHEMERIS_TYPE":0,"CLASSIFICATION_TYPE":"U","NORAD_CAT_ID":48958,"ELEMENT_SET_NO":999,"REV_AT_EPOCH":26201,"BSTAR":0.0003861171,"MEAN_MOTION_DOT":0.00023295,"MEAN_MOTION_DDOT":0}]
